01949   13.62  0.15 K239D 213.93978   66.44620  264.94948    4.65185  0.2290359  0.26777131   2.3839292  0 E2024-A48  6458  31 1936-2024 0.43 M-v 3Ek MPCLINUX   0000   (1949) Messina            20240103
01950   13.40  0.15 K239D 176.60704   53.49968   69.89776    4.22048  0.0848381  0.30660563   2.1781241  0 E2024-A48  9095  33 1942-2023 0.37 M-v 3Ek MPCLINUX   0000   (1950) Wempe              20231129
01951   14.11  0.15 K239D 103.78205  140.55667  130.73395   39.08999  0.0614989  0.60109297   1.3905127  0 E2024-A55  5241  21 1949-2024 0.41 M-v 3Ek MPCLINUX   0005   (1951) Lick               20240104
01952   10.49  0.15 K239D 211.09841  339.59188   78.11325   14.26807  0.1445631  0.17991544   3.1075903  0 E2024-A48  4235  36 1940-2023 0.49 M-v 3Ek MPCLINUX   0000   (1952) Hesburgh           20231016
01953   11.92  0.15 K239D  23.76426  325.75212   74.20285    2.45911  0.1820836  0.17968445   3.1102530  0 E2024-A65  3996  38 1929-2024 0.55 M-v 3Ek MPCLINUX   0000   (1953) Rupertwildt        20240106
01954   11.45  0.15 K239D  35.20890   70.51931  277.95995   14.79917  0.3145882  0.19598701   2.9352911  0 E2024-A65  3652  29 1952-2024 0.45 M-v 3Ek MPCLINUX   0000   (1954) Kukarkin           20240106
01955   12.18  0.15 K239D 119.55547  156.31584  257.88780    1.00306  0.0611008  0.20425324   2.8555520  0 E2024-A34  3940  39 1949-2023 0.54 M-v 3Ek MPCLINUX   0000   (1955) McMath             20231231
01956   12.29  0.15 K239D  29.65867  347.33422  153.12069    1.49730  0.1092793  0.17221951   3.1994929  0 E2024-A48  4877  38 1954-2024 0.53 M-v 3Ek MPCLINUX   0000   (1956) Artek              20240103
01957   11.44  0.15 K239D  39.98400  209.99669   50.67856   11.18971  0.0561917  0.18901480   3.0070375  0 E2024-A48  9795  33 1956-2023 0.33 M-v 3Ek MPCLINUX   0000   (1957) Angara             20231206
01958   11.46  0.15 K239D 270.07927  318.83969  344.88871   10.54464  0.1644867  0.17994561   3.1072429  0 E2024-A55  8198  35 1965-2024 0.38 M-v 3Ek MPCLINUX   0000   (1958) Chandra            20240105
01959   12.88  0.15 K239D 177.42904   31.86004  284.96387    6.19938  0.1338404  0.27974669   2.3154003  0 E2024-A65  3662  29 1930-2024 0.55 M-v 3Ek MPCLINUX   0000   (1959) Karbyshev          20240106
01960   12.25  0.15 K239D 254.72662  263.54028   22.14544    8.47615  0.1224603  0.24544269   2.5264031  0 E2024-A48  6275  35 1955-2024 0.44 M-v 3Ek MPCLINUX   0000   (1960) Guisan             20240103
01961   10.87  0.15 K239D 207.77149   56.39288   29.55960    6.64966  0.1256666  0.17293532   3.1906579  0 E2024-A26  5239  36 1952-2023 0.46 M-v 3Ek MPCLINUX   0000   (1961) Dufour             20231114
01962   12.16  0.15 K239D 282.31094   11.34795   15.22467    1.55266  0.2407431  0.17403859   3.1771594  0 E2024-A48  3614  35 1927-2023 0.60 M-v 3Ek MPCLINUX   0000   (1962) Dunant             20231006
01963   11.10  0.15 K239D   1.22479  355.45782  106.80404   25.03632  0.2094516  0.26138615   2.4225961  0 E2024-A65  4992  27 1952-2024 0.43 M-v 3Ek MPCLINUX   0007   (1963) Bezovec            20240106
01964   13.54  0.15 K239D  69.25146  163.54377  238.35918    2.39098  0.1959016  0.25467183   2.4649916  0 E2024-A55  3512  31 1933-2024 0.57 M-v 3Ek MPCLINUX   0000   (1964) Luyten             20240105
01965   12.02  0.15 K239D  54.29903  342.83108   88.13525    2.21898  0.1045473  0.23943767   2.5684694  0 E2024-A55  4179  33 1956-2024 0.54 M-v 3Ek MPCLINUX   0000   (1965) van de Kamp        20240105
01966   14.32  0.15 K239D 339.78466   60.45148  125.63187    2.48341  0.0911720  0.25744349   2.4472675  0 MPO775964  3828  29 1951-2023 0.58 M-v 3Ek MPCLINUX   0000   (1966) Tristan            20230512
01967   12.14  0.15 K239D 113.67950  347.64548   57.75569    3.90070  0.1387398  0.29532326   2.2332514  0 E2024-A55  4777  34 1905-2024 0.46 M-v 3Ek MPCLINUX   0000   (1967) Menzel             20240105
01968   11.86  0.15 K239D 353.49511  163.90859   71.46970    4.59282  0.1114522  0.21730193   2.7400616  0 E2024-A26  6130  39 1932-2023 0.42 M-v 3Ek MPCLINUX   0000   (1968) Mehltretter        20230813
01969   12.07  0.15 K239D  61.62144  346.53467  209.16171    3.33834  0.1572042  0.18151704   3.0892836  0 E2024-A48  5459  35 1930-2023 0.48 M-v 3Ek MPCLINUX   0000   (1969) Alain              20231027
01970   12.45  0.15 K239D  16.86290  194.55190  312.28888    7.07206  0.1613359  0.21283829   2.7782386  0 E2024-A55  4558  32 1949-2024 0.46 M-v 3Ek MPCLINUX   0000   (1970) Sumeria            20240105
01971   12.54  0.15 K239D 355.56133  118.19133  299.91715    8.68610  0.0845418  0.19010838   2.9954946  0 E2024-A65  4224  32 1955-2024 0.49 M-v 3Ek MPCLINUX   0000   (1971) Hagihara           20240106
01972   13.59  0.15 K239D 216.04763   33.51893   46.45353    4.11935  0.1667664  0.26198970   2.4188739  0 E2024-A48  8453  30 1949-2023 0.37 M-v 3Ek MPCLINUX   0000   (1972) Yi Xing            20230820
01973   12.52  0.15 K239D 229.58435  164.85434  183.03640   10.57473  0.0770479  0.17333389   3.1857649  0 E2024-A48  6036  36 1955-2023 0.44 M-v 3Ek MPCLINUX   0000   (1973) Colocolo           20230813
01974   13.14  0.15 K239D 328.07107   90.07453  168.23246   10.21607  0.0964258  0.17491013   3.1665966  0 E2024-A26  2774  30 1951-2023 0.64 M-v 3Ek MPCLINUX   0000   (1974) Caupolican         20230624
01975   12.27  0.15 K239D 169.20188  184.68907  170.16668    6.31377  0.1167613  0.21012139   2.8021359  0 E2024-A55  5879  34 1946-2024 0.45 M-v 3Ek MPCLINUX   0000   (1975) Pikelner           20240103
01976   13.27  0.15 K239D 190.79020  120.06632   90.87506    2.37184  0.0735236  0.26795127   2.3828617  0 E2024-A65  4007  38 1959-2024 0.56 M-v 3Ek MPCLINUX   0000   (1976) Kaverin            20240106
01977   11.86  0.15 K239D 230.38722  308.71831  332.20946    7.76933  0.0741807  0.21264757   2.7798995  0 E2024-A65  7402  33 1954-2024 0.39 M-v 3Ek MPCLINUX   0000   (1977) Shura              20240106
01978   13.17  0.15 K239D 338.67674  268.87685   54.25536    4.34269  0.2136071  0.30322368   2.1942897  0 E2024-A34  8100  35 1952-2023 0.37 M-v 3Ek MPCLINUX   0000   (1978) Patrice            20231129
01979   13.65  0.15 K239D  31.00586  220.45503  202.61214    6.05147  0.1002442  0.26954164   2.3734794  0 E2024-A65  3384  28 1960-2024 0.59 M-v 3Ek MPCLINUX   0000   (1979) Sakharov           20240106
01980   13.87  0.15 K239D 218.71296  115.49292  246.54645   26.86949  0.3646943  0.44090250   1.7096518  0 E2024-A55  6689  27 1950-2023 0.39 M-v 3Ek MPCLINUX   1804   (1980) Tezcatlipoca       20230612
01981   15.28  0.15 K239D  92.26039  267.82240  356.84512   39.82372  0.6501066  0.41618382   1.7766938  0 MPO775964  1056  26 1973-2023 0.68 M-v 3Ek MPCLINUX   9803   (1981) Midas              20231026
01982   13.08  0.15 K239D 276.45335  279.55438   42.32422    6.84120  0.2489604  0.28058158   2.3108049  0 E2024-A55  6241  31 1957-2023 0.40 M-v 3Ek MPCLINUX   0000   (1982) Cline              20230727
01983   13.20  0.15 K239D  51.92655  346.00136   23.52593    9.41379  0.0999767  0.23220412   2.6215376  0 E2024-A65  4077  29 1950-2024 0.53 M-v 3Ek MPCLINUX   0000   (1983) Bok                20240106
01984   11.34  0.15 K239D 254.57519  127.11779  185.55992    4.78940  0.0867328  0.18845459   3.0129938  0 E2024-A26  4938  39 1926-2023 0.51 M-v 3Ek MPCLINUX   0000   (1984) Fedynskij          20230727
01985   10.87  0.15 K239D   8.63563  233.36737  305.05334   17.18028  0.1566601  0.17879649   3.1205422  0 E2024-A26  4247  33 1929-2023 0.49 M-v 3Ek MPCLINUX   0000   (1985) Hopmann            20230703
01986   12.06  0.15 K239D  53.78525  229.45226  146.55289    2.21383  0.2043800  0.18145152   3.0900273  0 E2024-A65  3783  36 1935-2024 0.56 M-v 3Ek MPCLINUX   0000   (1986) Plaut              20240106
01987   11.77  0.15 K239D 108.74508   38.25273  314.17518   23.64663  0.2275894  0.26819482   2.3814189  0 E2024-A65  5891  27 1952-2024 0.38 M-v 3Ek MPCLINUX   0007   (1987) Kaplan             20240106
01988   13.61  0.15 K239D 192.97580  235.01580  106.33733    4.25189  0.1024415  0.31181591   2.1537925  0 E2024-A55  3574  32 1951-2024 0.57 M-v 3Ek MPCLINUX   0000   (1988) Delores            20240103
01989   12.61  0.15 K239D  47.17948   89.11832   25.22263    7.76950  0.0752804  0.27334546   2.3514088  0 E2024-A55  3535  33 1935-2024 0.54 M-v 3Ek MPCLINUX   0000   (1989) Tatry              20240105
01990   12.90  0.15 K239D 347.11903   12.66747  193.56704    3.13496  0.0519213  0.30746371   2.1740697  0 MPO775964  4647  34 1937-2023 0.51 M-v 3Ek MPCLINUX   0000   (1990) Pilcher            20230610
01991   13.66  0.15 K239D 201.56177  345.57888  328.41250    5.91407  0.2074766  0.29233563   2.2484413  0 E2024-A55  6306  29 1954-2024 0.40 M-v 3Ek MPCLINUX   0000   (1991) Darwin             20240105
01992   12.69  0.15 K239D 260.17826   94.55521  182.41322   10.57194  0.0474838  0.19033916   2.9930728  0 E2024-A34  4018  30 1968-2024 0.54 M-v 3Ek MPCLINUX   0000   (1992) Galvarino          20240103
01993   12.99  0.15 K239D 103.15495  155.42897  157.91454   11.46418  0.0687150  0.18412351   3.0600596  0 E2024-A55  2943  31 1968-2024 0.59 M-v 3Ek MPCLINUX   0000   (1993) Guacolda           20240105
01994   12.35  0.15 K239D  72.90654   89.74902  244.65973   10.22546  0.2076871  0.22467654   2.6797702  0 E2024-A65  4394  32 1939-2024 0.52 M-v 3Ek MPCLINUX   0000   (1994) Shane              20240106
01995   13.27  0.15 K239D 186.70586  133.29001   47.20597   10.82446  0.0534953  0.24495444   2.5297592  0 E2024-A55  3281  30 1941-2024 0.52 M-v 3Ek MPCLINUX   0000   (1995) Hajek              20240105
01996   11.84  0.15 K239D  69.96770  354.84655    1.05431   15.12941  0.1394115  0.24089580   2.5580944  0 E2024-A65  8009  28 1961-2024 0.35 M-v 3Ek MPCLINUX   0000   (1996) Adams              20240106
01997   13.32  0.15 K239D  93.61694    0.73483  353.13961    6.06358  0.2065468  0.30022893   2.2088575  0 E2024-A65  3547  29 1950-2024 0.54 M-v 3Ek MPCLINUX   0000   (1997) Leverrier          20240106
